start=new Date('2021-11-10T00:00:00.000Z').valueOf();
sats=[{"RCS_SIZE":"LARGE","MEAN_ELEMENT_THEORY":"SGP4","PERIAPSIS":"546.563","TIME_SYSTEM":"UTC","OBJECT_NAME":"STARLINK-2515","GP_ID":"189338379","DECAY_DATE":null,"ARG_OF_PERICENTER":"70.6303","MEAN_MOTION_DDOT":"0.0000000000000","APOAPSIS":"547.863","PERIOD":"95.592","OBJECT_TYPE":"PAYLOAD","TLE_LINE2":"2 48323  53.0580 359.7276 0000938  70.6303 289.4787 15.06400189 29719","REF_FRAME":"TEME","FILE":"3210161","MEAN_MOTION":"15.06400189","MEAN_ANOMALY":"289.4787","NORAD_CAT_ID":"48323","ECCENTRICITY":"0.00009380","SEMIMAJOR_AXIS":"6925.348","INCLINATION":"53.0580","REV_AT_EPOCH":"2971","MEAN_MOTION_DOT":"0.00006261","SITE":"AFETR","ELEMENT_SET_NO":"999","RA_OF_ASC_NODE":"359.7276","CLASSIFICATION_TYPE":"U","OBJECT_ID":"2021-036AZ","COUNTRY_CODE":"US","EPOCH":"2021-11-09T12:39:59.060160","CENTER_NAME":"EARTH","LAUNCH_DATE":"2021-04-29","TLE_LINE1":"1 48323U 21036AZ  21313.52776690  .00006261  00000-0  43886-3 0  9991","BSTAR":"0.00043886000000","EPHEMERIS_TYPE":"0"},{"TLE_LINE1":"1 48324U 21036BA  21313.52407828  .00007641  00000-0  53078-3 0  9993","LAUNCH_DATE":"2021-04-29","EPOCH":"2021-11-09T12:34:40.363392","CENTER_NAME":"EARTH","EPHEMERIS_TYPE":"0","BSTAR":"0.00053078000000","ELEMENT_SET_NO":"999","OBJECT_ID":"2021-036BA","COUNTRY_CODE":"US","RA_OF_ASC_NODE":"359.7569","CLASSIFICATION_TYPE":"U","MEAN_MOTION_DOT":"0.00007641","INCLINATION":"53.0546","REV_AT_EPOCH":"2970","SITE":"AFETR","SEMIMAJOR_AXIS":"6925.242","NORAD_CAT_ID":"48324","ECCENTRICITY":"0.00014210","TLE_LINE2":"2 48324  53.0546 359.7569 0001421  70.8537 289.2606 15.06434691 29708","PERIOD":"95.590","OBJECT_TYPE":"PAYLOAD","MEAN_MOTION":"15.06434691","MEAN_ANOMALY":"289.2606","REF_FRAME":"TEME","FILE":"3210161","ARG_OF_PERICENTER":"70.8537","DECAY_DATE":null,"MEAN_MOTION_DDOT":"0.0000000000000","APOAPSIS":"548.091","GP_ID":"189337626","RCS_SIZE":"LARGE","MEAN_ELEMENT_THEORY":"SGP4","PERIAPSIS":"546.123","OBJECT_NAME":"STARLINK-2527","TIME_SYSTEM":"UTC"},{"GP_ID":"189337377","RCS_SIZE":"LARGE","PERIAPSIS":"546.112","MEAN_ELEMENT_THEORY":"SGP4","OBJECT_NAME":"STARLINK-2495","TIME_SYSTEM":"UTC","TLE_LINE2":"2 48325  53.0562 359.7679 0001472  71.2395 288.8754 15.06426746 29714","PERIOD":"95.590","OBJECT_TYPE":"PAYLOAD","MEAN_MOTION":"15.06426746","MEAN_ANOMALY":"288.8754","REF_FRAME":"TEME","FILE":"3210161","ARG_OF_PERICENTER":"71.2395","DECAY_DATE":null,"APOAPSIS":"548.151","MEAN_MOTION_DDOT":"0.0000000000000","MEAN_MOTION_DOT":"0.00008770","INCLINATION":"53.0562","REV_AT_EPOCH":"2971","SITE":"AFETR","SEMIMAJOR_AXIS":"6925.267","NORAD_CAT_ID":"48325","ECCENTRICITY":"0.00014720","TLE_LINE1":"1 48325U 21036BB  21313.52039474  .00008770  00000-0  60646-3 0  9995","LAUNCH_DATE":"2021-04-29","EPOCH":"2021-11-09T12:29:22.105536","CENTER_NAME":"EARTH","BSTAR":"0.00060646000000","EPHEMERIS_TYPE":"0","ELEMENT_SET_NO":"999","OBJECT_ID":"2021-036BB","COUNTRY_CODE":"US","RA_OF_ASC_NODE":"359.7679","CLASSIFICATION_TYPE":"U"},{"COUNTRY_CODE":"US","OBJECT_ID":"2021-036BC","CLASSIFICATION_TYPE":"U","RA_OF_ASC_NODE":"359.7678","ELEMENT_SET_NO":"999","BSTAR":"0.00048791000000","EPHEMERIS_TYPE":"0","LAUNCH_DATE":"2021-04-29","TLE_LINE1":"1 48326U 21036BC  21313.51671865  .00006997  00000-0  48791-3 0  9997","CENTER_NAME":"EARTH","EPOCH":"2021-11-09T12:24:04.491360","SEMIMAJOR_AXIS":"6925.290","NORAD_CAT_ID":"48326","ECCENTRICITY":"0.00015280","SITE":"AFETR","MEAN_MOTION_DOT":"0.00006997","REV_AT_EPOCH":"2971","INCLINATION":"53.0550","MEAN_MOTION_DDOT":"0.0000000000000","APOAPSIS":"548.213","ARG_OF_PERICENTER":"63.1472","DECAY_DATE":null,"MEAN_ANOMALY":"296.9673","MEAN_MOTION":"15.06419196","FILE":"3210161","REF_FRAME":"TEME","TLE_LINE2":"2 48326  53.0550 359.7678 0001528  63.1472 296.9673 15.06419196 29710","OBJECT_TYPE":"PAYLOAD","PERIOD":"95.591","OBJECT_NAME":"STARLINK-2498","TIME_SYSTEM":"UTC","MEAN_ELEMENT_THEORY":"SGP4","PERIAPSIS":"546.097","RCS_SIZE":"LARGE","GP_ID":"189338628"},{"GP_ID":"189338879","OBJECT_NAME":"STARLINK-2502","TIME_SYSTEM":"UTC","RCS_SIZE":"LARGE","MEAN_ELEMENT_THEORY":"SGP4","PERIAPSIS":"546.198","MEAN_MOTION":"15.06427701","MEAN_ANOMALY":"290.4493","REF_FRAME":"TEME","FILE":"3210161","TLE_LINE2":"2 48327  53.0548 359.7827 0001344  69.6641 290.4493 15.06427701 29719","PERIOD":"95.590","OBJECT_TYPE":"PAYLOAD","APOAPSIS":"548.059","MEAN_MOTION_DDOT":"0.0000000000000","ARG_OF_PERICENTER":"69.6641","DECAY_DATE":null,"SITE":"AFETR","MEAN_MOTION_DOT":"0.00008403","REV_AT_EPOCH":"2971","INCLINATION":"53.0548","SEMIMAJOR_AXIS":"6925.264","NORAD_CAT_ID":"48327","ECCENTRICITY":"0.00013440","BSTAR":"0.00058193000000","EPHEMERIS_TYPE":"0","TLE_LINE1":"1 48327U 21036BD  21313.51301815  .00008403  00000-0  58193-3 0  9994","LAUNCH_DATE":"2021-04-29","EPOCH":"2021-11-09T12:18:44.768160","CENTER_NAME":"EARTH","OBJECT_ID":"2021-036BD","COUNTRY_CODE":"US","RA_OF_ASC_NODE":"359.7827","CLASSIFICATION_TYPE":"U","ELEMENT_SET_NO":"999"},{"MEAN_MOTION_DOT":"0.00005053","REV_AT_EPOCH":"2973","INCLINATION":"53.0553","SITE":"AFETR","SEMIMAJOR_AXIS":"6925.322","NORAD_CAT_ID":"48328","ECCENTRICITY":"0.00014230","TLE_LINE1":"1 48328U 21036BE  21313.64204175  .00005053  00000-0  35780-3 0  9995","LAUNCH_DATE":"2021-04-29","EPOCH":"2021-11-09T15:24:32.407200","CENTER_NAME":"EARTH","BSTAR":"0.00035780000000","EPHEMERIS_TYPE":"0","ELEMENT_SET_NO":"999","OBJECT_ID":"2021-036BE","COUNTRY_CODE":"US","RA_OF_ASC_NODE":"359.2062","CLASSIFICATION_TYPE":"U","GP_ID":"189362379","RCS_SIZE":"LARGE","PERIAPSIS":"546.201","MEAN_ELEMENT_THEORY":"SGP4","OBJECT_NAME":"STARLINK-2504","TIME_SYSTEM":"UTC","TLE_LINE2":"2 48328  53.0553 359.2062 0001423  81.1007 279.0143 15.06408727 29739","PERIOD":"95.592","OBJECT_TYPE":"PAYLOAD","MEAN_ANOMALY":"279.0143","MEAN_MOTION":"15.06408727","REF_FRAME":"TEME","FILE":"3210180","ARG_OF_PERICENTER":"81.1007","DECAY_DATE":null,"APOAPSIS":"548.172","MEAN_MOTION_DDOT":"0.0000000000000"},{"ELEMENT_SET_NO":"999","CLASSIFICATION_TYPE":"U","RA_OF_ASC_NODE":"359.2281","COUNTRY_CODE":"US","OBJECT_ID":"2021-036BF","CENTER_NAME":"EARTH","EPOCH":"2021-11-09T15:19:13.488384","LAUNCH_DATE":"2021-04-29","TLE_LINE1":"1 48329U 21036BF  21313.63835056 -.00001502  00000-0 -81960-4 0  9992","EPHEMERIS_TYPE":"0","BSTAR":"-0.00008196000000","NORAD_CAT_ID":"48329","ECCENTRICITY":"0.00014880","SEMIMAJOR_AXIS":"6925.389","REV_AT_EPOCH":"2973","INCLINATION":"53.0561","MEAN_MOTION_DOT":"-0.00001502","SITE":"AFETR","DECAY_DATE":null,"ARG_OF_PERICENTER":"71.3178","MEAN_MOTION_DDOT":"0.0000000000000","APOAPSIS":"548.285","OBJECT_TYPE":"PAYLOAD","PERIOD":"95.593","TLE_LINE2":"2 48329  53.0561 359.2281 0001488  71.3178 288.7972 15.06386729 29737","FILE":"3210180","REF_FRAME":"TEME","MEAN_MOTION":"15.06386729","MEAN_ANOMALY":"288.7972","PERIAPSIS":"546.224","MEAN_ELEMENT_THEORY":"SGP4","RCS_SIZE":"LARGE","TIME_SYSTEM":"UTC","OBJECT_NAME":"STARLINK-2510","GP_ID":"189361127"},{"GP_ID":"189338129","TIME_SYSTEM":"UTC","OBJECT_NAME":"STARLINK-2501","RCS_SIZE":"LARGE","MEAN_ELEMENT_THEORY":"SGP4","PERIAPSIS":"545.946","REF_FRAME":"TEME","FILE":"3210161","MEAN_MOTION":"15.06418229","MEAN_ANOMALY":"298.8544","PERIOD":"95.591","OBJECT_TYPE":"PAYLOAD","TLE_LINE2":"2 48330  53.0566   0.1437 0001749  61.2620 298.8544 15.06418229 29704","APOAPSIS":"548.369","MEAN_MOTION_DDOT":"0.0000000000000","DECAY_DATE":null,"ARG_OF_PERICENTER":"61.2620","SITE":"AFETR","REV_AT_EPOCH":"2970","INCLINATION":"53.0566","MEAN_MOTION_DOT":"0.00007260","NORAD_CAT_ID":"48330","ECCENTRICITY":"0.00017490","SEMIMAJOR_AXIS":"6925.293","BSTAR":"0.00050553000000","EPHEMERIS_TYPE":"0","EPOCH":"2021-11-09T10:27:17.393472","CENTER_NAME":"EARTH","TLE_LINE1":"1 48330U 21036BG  21313.43561798  .00007260  00000-0  50553-3 0  9999","LAUNCH_DATE":"2021-04-29","RA_OF_ASC_NODE":"0.1437","CLASSIFICATION_TYPE":"U","OBJECT_ID":"2021-036BG","COUNTRY_CODE":"US","ELEMENT_SET_NO":"999"},{"OBJECT_ID":"2021-036BH","COUNTRY_CODE":"US","RA_OF_ASC_NODE":"359.2613","CLASSIFICATION_TYPE":"U","ELEMENT_SET_NO":"999","BSTAR":"0.00033672000000","EPHEMERIS_TYPE":"0","LAUNCH_DATE":"2021-04-29","TLE_LINE1":"1 48331U 21036BH  21313.63098055  .00004739  00000-0  33672-3 0  9994","EPOCH":"2021-11-09T15:08:36.719520","CENTER_NAME":"EARTH","SEMIMAJOR_AXIS":"6925.306","NORAD_CAT_ID":"48331","ECCENTRICITY":"0.00013430","SITE":"AFETR","MEAN_MOTION_DOT":"0.00004739","REV_AT_EPOCH":"2973","INCLINATION":"53.0558","APOAPSIS":"548.101","MEAN_MOTION_DDOT":"0.0000000000000","ARG_OF_PERICENTER":"70.0175","DECAY_DATE":null,"MEAN_ANOMALY":"290.0958","MEAN_MOTION":"15.06413994","REF_FRAME":"TEME","FILE":"3210180","TLE_LINE2":"2 48331  53.0558 359.2613 0001343  70.0175 290.0958 15.06413994 29733","PERIOD":"95.591","OBJECT_TYPE":"PAYLOAD","OBJECT_NAME":"STARLINK-2514","TIME_SYSTEM":"UTC","RCS_SIZE":"LARGE","MEAN_ELEMENT_THEORY":"SGP4","PERIAPSIS":"546.241","GP_ID":"189361628"},{"TIME_SYSTEM":"UTC","OBJECT_NAME":"STARLINK-2511","MEAN_ELEMENT_THEORY":"SGP4","PERIAPSIS":"546.385","RCS_SIZE":"LARGE","GP_ID":"189337627","MEAN_MOTION_DDOT":"0.0000000000000","APOAPSIS":"548.075","DECAY_DATE":null,"ARG_OF_PERICENTER":"81.2569","FILE":"3210161","REF_FRAME":"TEME","MEAN_ANOMALY":"278.8558","MEAN_MOTION":"15.06394686","OBJECT_TYPE":"PAYLOAD","PERIOD":"95.592","TLE_LINE2":"2 48332  53.0545   0.1836 0001220  81.2569 278.8558 15.06394686 29707","NORAD_CAT_ID":"48332","ECCENTRICITY":"0.00012200","SEMIMAJOR_AXIS":"6925.365","SITE":"AFETR","INCLINATION":"53.0545","REV_AT_EPOCH":"2970","MEAN_MOTION_DOT":"0.00002515","CLASSIFICATION_TYPE":"U","RA_OF_ASC_NODE":"0.1836","COUNTRY_CODE":"US","OBJECT_ID":"2021-036BJ","ELEMENT_SET_NO":"999","BSTAR":"0.00018771000000","EPHEMERIS_TYPE":"0","CENTER_NAME":"EARTH","EPOCH":"2021-11-09T10:20:38.055264","LAUNCH_DATE":"2021-04-29","TLE_LINE1":"1 48332U 21036BJ  21313.43099601  .00002515  00000-0  18771-3 0  9994"}];
